2026-027H               
1 67753U 26027H   26050.25088764  .00339138  23184-5  63619-3 0  9996
2 67753  97.5139 179.9600 0264794 313.6194  44.3363 15.60523494  1097
2026-027J               
1 67754U 26027J   26050.30195937  .00750312  23584-5  12762-2 0  9991
2 67754  97.5111 180.0459 0243009 312.7888  45.3158 15.66409255  1041
2026-028A               
1 67756U 26028A   26050.26536363 -.00000327  00000+0  00000+0 0  9997
2 67756   0.5123 288.1410 0045366  50.2970  21.3479  1.00850046    72
CREW DRAGON 12          
1 67796U 26031A   26049.79608032  .00009878  00000+0  18896-3 0  9999
2 67796  51.6323 165.7431 0010935 112.1599 248.0551 15.48691264   821
